COSMOS 2251 DEB         
1 33763U 93036L   17345.83975330  .00002695  00000-0  59569-3 0  9990
2 33763  73.9373 127.6834 0015337 214.7702 259.9076 14.57707761464703
